{"fetched_at":"2026-07-14T06:34:47.836Z","source":"https://celestrak.org/NORAD/elements/gp.php?NAME=HULIANWANG&FORMAT=JSON","constellation":"guowang","records":[{"OBJECT_NAME":"HULIANWANG DIGUI-19","OBJECT_ID":"2025-030J","EPOCH":"2026-07-13T19:46:24.491712","CLASSIFICATION_TYPE":"U","MEAN_MOTION":13.29318943,"ECCENTRICITY":0.0000816,"INCLINATION":50.0041,"RA_OF_ASC_NODE":140.2389,"ARG_OF_PERICENTER":261.4688,"MEAN_ANOMALY":98.6091,"EPHEMERIS_TYPE":0,"NORAD_CAT_ID":62979,"ELEMENT_SET_NO":999,"REV_AT_EPOCH":6940,"BSTAR":0.000016972,"MEAN_MOTION_DOT":-0.00000116,"MEAN_MOTION_DDOT":0},{"OBJECT_NAME":"HULIANWANG DIGUI-20","OBJECT_ID":"2025-086A","EPOCH":"2026-07-13T20:15:56.189376","CLASSIFICATION_TYPE":"U","MEAN_MOTION":13.24411458,"ECCENTRICITY":0.0002002,"INCLINATION":86.5065,"RA_OF_ASC_NODE":304.1546,"ARG_OF_PERICENTER":113.2115,"MEAN_ANOMALY":246.923,"EPHEMERIS_TYPE":0,"NORAD_CAT_ID":63687,"ELEMENT_SET_NO":999,"REV_AT_EPOCH":5840,"BSTAR":0.0000043536,"MEAN_MOTION_DOT":1.7e-7,"MEAN_MOTION_DDOT":0},{"OBJECT_NAME":"HULIANWANG DIGUI-21","OBJECT_ID":"2025-086B","EPOCH":"2026-07-13T20:26:51.270720","CLASSIFICATION_TYPE":"U","MEAN_MOTION":13.24410084,"ECCENTRICITY":0.0001927,"INCLINATION":86.5094,"RA_OF_ASC_NODE":304.217,"ARG_OF_PERICENTER":116.0806,"MEAN_ANOMALY":244.0527,"EPHEMERIS_TYPE":0,"NORAD_CAT_ID":63688,"ELEMENT_SET_NO":999,"REV_AT_EPOCH":5839,"BSTAR":0.000025828,"MEAN_MOTION_DOT":2.6e-7,"MEAN_MOTION_DDOT":0},{"OBJECT_NAME":"HULIANWANG DIGUI-22","OBJECT_ID":"2025-086C","EPOCH":"2026-07-13T20:37:41.141280","CLASSIFICATION_TYPE":"U","MEAN_MOTION":13.24410452,"ECCENTRICITY":0.0002047,"INCLINATION":86.5059,"RA_OF_ASC_NODE":304.0735,"ARG_OF_PERICENTER":112.7359,"MEAN_ANOMALY":247.3992,"EPHEMERIS_TYPE":0,"NORAD_CAT_ID":63689,"ELEMENT_SET_NO":999,"REV_AT_EPOCH":5839,"BSTAR":0.000062132,"MEAN_MOTION_DOT":4.1e-7,"MEAN_MOTION_DDOT":0},{"OBJECT_NAME":"HULIANWANG DIGUI-23","OBJECT_ID":"2025-086D","EPOCH":"2026-07-13T19:10:37.125120","CLASSIFICATION_TYPE":"U","MEAN_MOTION":13.24410229,"ECCENTRICITY":0.0002017,"INCLINATION":86.5101,"RA_OF_ASC_NODE":304.2829,"ARG_OF_PERICENTER":113.149,"MEAN_ANOMALY":246.9856,"EPHEMERIS_TYPE":0,"NORAD_CAT_ID":63690,"ELEMENT_SET_NO":999,"REV_AT_EPOCH":5838,"BSTAR":0.000062121,"MEAN_MOTION_DOT":4.1e-7,"MEAN_MOTION_DDOT":0},{"OBJECT_NAME":"HULIANWANG DIGUI-24","OBJECT_ID":"2025-086E","EPOCH":"2026-07-13T19:21:33.045408","CLASSIFICATION_TYPE":"U","MEAN_MOTION":13.2441093,"ECCENTRICITY":0.0001974,"INCLINATION":86.5108,"RA_OF_ASC_NODE":304.3156,"ARG_OF_PERICENTER":115.4609,"MEAN_ANOMALY":244.6729,"EPHEMERIS_TYPE":0,"NORAD_CAT_ID":63691,"ELEMENT_SET_NO":999,"REV_AT_EPOCH":5838,"BSTAR":0.000034722,"MEAN_MOTION_DOT":3e-7,"MEAN_MOTION_DDOT":0},{"OBJECT_NAME":"HULIANWANG DIGUI-25","OBJECT_ID":"2025-086F","EPOCH":"2026-07-13T19:32:25.699776","CLASSIFICATION_TYPE":"U","MEAN_MOTION":13.24410269,"ECCENTRICITY":0.0001929,"INCLINATION":86.5047,"RA_OF_ASC_NODE":304.0578,"ARG_OF_PERICENTER":112.9828,"MEAN_ANOMALY":247.151,"EPHEMERIS_TYPE":0,"NORAD_CAT_ID":63692,"ELEMENT_SET_NO":999,"REV_AT_EPOCH":5838,"BSTAR":-0.0000041679,"MEAN_MOTION_DOT":1.3e-7,"MEAN_MOTION_DDOT":0},{"OBJECT_NAME":"HULIANWANG DIGUI-26","OBJECT_ID":"2025-086G","EPOCH":"2026-07-13T18:59:44.520000","CLASSIFICATION_TYPE":"U","MEAN_MOTION":13.24409241,"ECCENTRICITY":0.0002119,"INCLINATION":86.5095,"RA_OF_ASC_NODE":304.2531,"ARG_OF_PERICENTER":119.4131,"MEAN_ANOMALY":240.7214,"EPHEMERIS_TYPE":0,"NORAD_CAT_ID":63693,"ELEMENT_SET_NO":999,"REV_AT_EPOCH":5838,"BSTAR":0.000069672,"MEAN_MOTION_DOT":4.5e-7,"MEAN_MOTION_DDOT":0},{"OBJECT_NAME":"HULIANWANG DIGUI-27","OBJECT_ID":"2025-086H","EPOCH":"2026-07-13T19:43:16.322016","CLASSIFICATION_TYPE":"U","MEAN_MOTION":13.24412106,"ECCENTRICITY":0.0001988,"INCLINATION":86.5056,"RA_OF_ASC_NODE":304.1016,"ARG_OF_PERICENTER":114.7823,"MEAN_ANOMALY":245.3518,"EPHEMERIS_TYPE":0,"NORAD_CAT_ID":63694,"ELEMENT_SET_NO":999,"REV_AT_EPOCH":5838,"BSTAR":-0.000012156,"MEAN_MOTION_DOT":9e-8,"MEAN_MOTION_DDOT":0},{"OBJECT_NAME":"HULIANWANG DIGUI-28","OBJECT_ID":"2025-086J","EPOCH":"2026-07-13T20:04:59.654784","CLASSIFICATION_TYPE":"U","MEAN_MOTION":13.24410913,"ECCENTRICITY":0.0002054,"INCLINATION":86.502,"RA_OF_ASC_NODE":303.9561,"ARG_OF_PERICENTER":112.5156,"MEAN_ANOMALY":247.6196,"EPHEMERIS_TYPE":0,"NORAD_CAT_ID":63695,"ELEMENT_SET_NO":999,"REV_AT_EPOCH":5838,"BSTAR":-0.000016814,"MEAN_MOTION_DOT":7e-8,"MEAN_MOTION_DDOT":0},{"OBJECT_NAME":"HULIANWANG DIGUI-29","OBJECT_ID":"2025-086K","EPOCH":"2026-07-13T19:54:09.873216","CLASSIFICATION_TYPE":"U","MEAN_MOTION":13.24411269,"ECCENTRICITY":0.0001903,"INCLINATION":86.5048,"RA_OF_ASC_NODE":304.0739,"ARG_OF_PERICENTER":114.232,"MEAN_ANOMALY":245.9013,"EPHEMERIS_TYPE":0,"NORAD_CAT_ID":63696,"ELEMENT_SET_NO":999,"REV_AT_EPOCH":5838,"BSTAR":-0.000042737,"MEAN_MOTION_DOT":-4e-8,"MEAN_MOTION_DDOT":0},{"OBJECT_NAME":"HULIANWANG DIGUI-30","OBJECT_ID":"2025-121A","EPOCH":"2026-07-13T20:04:52.468032","CLASSIFICATION_TYPE":"U","MEAN_MOTION":13.24409492,"ECCENTRICITY":0.0001979,"INCLINATION":86.4993,"RA_OF_ASC_NODE":4.5643,"ARG_OF_PERICENTER":89.3324,"MEAN_ANOMALY":270.8037,"EPHEMERIS_TYPE":0,"NORAD_CAT_ID":64283,"ELEMENT_SET_NO":999,"REV_AT_EPOCH":5368,"BSTAR":-0.000022542,"MEAN_MOTION_DOT":5e-8,"MEAN_MOTION_DDOT":0},{"OBJECT_NAME":"HULIANWANG DIGUI-31","OBJECT_ID":"2025-121B","EPOCH":"2026-07-13T19:54:04.679712","CLASSIFICATION_TYPE":"U","MEAN_MOTION":13.24414469,"ECCENTRICITY":0.0001973,"INCLINATION":86.5014,"RA_OF_ASC_NODE":4.6432,"ARG_OF_PERICENTER":89.4708,"MEAN_ANOMALY":270.6652,"EPHEMERIS_TYPE":0,"NORAD_CAT_ID":64284,"ELEMENT_SET_NO":999,"REV_AT_EPOCH":5368,"BSTAR":-0.0000061157,"MEAN_MOTION_DOT":1.2e-7,"MEAN_MOTION_DDOT":0},{"OBJECT_NAME":"HULIANWANG DIGUI-32","OBJECT_ID":"2025-121C","EPOCH":"2026-07-13T19:42:59.158656","CLASSIFICATION_TYPE":"U","MEAN_MOTION":13.24410311,"ECCENTRICITY":0.0001923,"INCLINATION":86.4955,"RA_OF_ASC_NODE":4.4013,"ARG_OF_PERICENTER":93.4245,"MEAN_ANOMALY":266.7109,"EPHEMERIS_TYPE":0,"NORAD_CAT_ID":64285,"ELEMENT_SET_NO":999,"REV_AT_EPOCH":5368,"BSTAR":0.000020706,"MEAN_MOTION_DOT":2.4e-7,"MEAN_MOTION_DDOT":0},{"OBJECT_NAME":"HULIANWANG DIGUI-33","OBJECT_ID":"2025-121D","EPOCH":"2026-07-13T19:32:06.874080","CLASSIFICATION_TYPE":"U","MEAN_MOTION":13.24409907,"ECCENTRICITY":0.0001985,"INCLINATION":86.5013,"RA_OF_ASC_NODE":4.6318,"ARG_OF_PERICENTER":89.8713,"MEAN_ANOMALY":270.2649,"EPHEMERIS_TYPE":0,"NORAD_CAT_ID":64286,"ELEMENT_SET_NO":999,"REV_AT_EPOCH":5368,"BSTAR":0.000030451,"MEAN_MOTION_DOT":2.8e-7,"MEAN_MOTION_DDOT":0},{"OBJECT_NAME":"HULIANWANG DIGUI-34","OBJECT_ID":"2025-121E","EPOCH":"2026-07-13T21:10:04.833696","CLASSIFICATION_TYPE":"U","MEAN_MOTION":13.24410583,"ECCENTRICITY":0.0002201,"INCLINATION":86.499,"RA_OF_ASC_NODE":4.5126,"ARG_OF_PERICENTER":83.1396,"MEAN_ANOMALY":276.9988,"EPHEMERIS_TYPE":0,"NORAD_CAT_ID":64287,"ELEMENT_SET_NO":999,"REV_AT_EPOCH":5369,"BSTAR":0.000046442,"MEAN_MOTION_DOT":3.5e-7,"MEAN_MOTION_DDOT":0},{"OBJECT_NAME":"HULIANWANG DIGUI-35","OBJECT_ID":"2025-159A","EPOCH":"2026-07-13T20:15:56.306016","CLASSIFICATION_TYPE":"U","MEAN_MOTION":13.2441302,"ECCENTRICITY":0.0004584,"INCLINATION":86.4941,"RA_OF_ASC_NODE":273.4247,"ARG_OF_PERICENTER":67.7489,"MEAN_ANOMALY":292.413,"EPHEMERIS_TYPE":0,"NORAD_CAT_ID":64956,"ELEMENT_SET_NO":999,"REV_AT_EPOCH":4665,"BSTAR":0.000065294,"MEAN_MOTION_DOT":4.3e-7,"MEAN_MOTION_DDOT":0},{"OBJECT_NAME":"HULIANWANG DIGUI-36","OBJECT_ID":"2025-159B","EPOCH":"2026-07-13T20:10:17.719104","CLASSIFICATION_TYPE":"U","MEAN_MOTION":13.24408466,"ECCENTRICITY":0.0001635,"INCLINATION":86.496,"RA_OF_ASC_NODE":273.4915,"ARG_OF_PERICENTER":101.6627,"MEAN_ANOMALY":258.4691,"EPHEMERIS_TYPE":0,"NORAD_CAT_ID":64957,"ELEMENT_SET_NO":999,"REV_AT_EPOCH":4665,"BSTAR":0.000059276,"MEAN_MOTION_DOT":4e-7,"MEAN_MOTION_DDOT":0},{"OBJECT_NAME":"HULIANWANG DIGUI-37","OBJECT_ID":"2025-159C","EPOCH":"2026-07-13T19:59:23.720352","CLASSIFICATION_TYPE":"U","MEAN_MOTION":13.24409189,"ECCENTRICITY":0.0001791,"INCLINATION":86.4902,"RA_OF_ASC_NODE":273.2823,"ARG_OF_PERICENTER":97.9485,"MEAN_ANOMALY":262.1852,"EPHEMERIS_TYPE":0,"NORAD_CAT_ID":64958,"ELEMENT_SET_NO":999,"REV_AT_EPOCH":4665,"BSTAR":0.000036181,"MEAN_MOTION_DOT":3e-7,"MEAN_MOTION_DDOT":0},{"OBJECT_NAME":"HULIANWANG DIGUI-38","OBJECT_ID":"2025-159D","EPOCH":"2026-07-13T19:48:34.003584","CLASSIFICATION_TYPE":"U","MEAN_MOTION":13.24408912,"ECCENTRICITY":0.0001842,"INCLINATION":86.4961,"RA_OF_ASC_NODE":273.4844,"ARG_OF_PERICENTER":98.961,"MEAN_ANOMALY":261.1733,"EPHEMERIS_TYPE":0,"NORAD_CAT_ID":64959,"ELEMENT_SET_NO":999,"REV_AT_EPOCH":4665,"BSTAR":0.000028554,"MEAN_MOTION_DOT":2.7e-7,"MEAN_MOTION_DDOT":0},{"OBJECT_NAME":"HULIANWANG DIGUI-39","OBJECT_ID":"2025-159E","EPOCH":"2026-07-13T19:37:40.156896","CLASSIFICATION_TYPE":"U","MEAN_MOTION":13.24408773,"ECCENTRICITY":0.0001799,"INCLINATION":86.4937,"RA_OF_ASC_NODE":273.3963,"ARG_OF_PERICENTER":101.7743,"MEAN_ANOMALY":258.3593,"EPHEMERIS_TYPE":0,"NORAD_CAT_ID":64960,"ELEMENT_SET_NO":999,"REV_AT_EPOCH":4665,"BSTAR":0.000009799,"MEAN_MOTION_DOT":1.9e-7,"MEAN_MOTION_DDOT":0},{"OBJECT_NAME":"HULIANWANG DIGUI-40","OBJECT_ID":"2025-162A","EPOCH":"2026-07-13T20:30:57.276576","CLASSIFICATION_TYPE":"U","MEAN_MOTION":13.29327273,"ECCENTRICITY":0.0000304,"INCLINATION":49.9977,"RA_OF_ASC_NODE":170.2869,"ARG_OF_PERICENTER":306.0984,"MEAN_ANOMALY":53.986,"EPHEMERIS_TYPE":0,"NORAD_CAT_ID":65043,"ELEMENT_SET_NO":999,"REV_AT_EPOCH":4689,"BSTAR":0.000025367,"MEAN_MOTION_DOT":-0.00000112,"MEAN_MOTION_DDOT":0},{"OBJECT_NAME":"HULIANWANG DIGUI-41","OBJECT_ID":"2025-162B","EPOCH":"2026-07-13T18:30:41.429376","CLASSIFICATION_TYPE":"U","MEAN_MOTION":13.29326839,"ECCENTRICITY":0.0000271,"INCLINATION":49.9988,"RA_OF_ASC_NODE":170.5404,"ARG_OF_PERICENTER":314.0005,"MEAN_ANOMALY":46.0845,"EPHEMERIS_TYPE":0,"NORAD_CAT_ID":65044,"ELEMENT_SET_NO":999,"REV_AT_EPOCH":4689,"BSTAR":0.000023774,"MEAN_MOTION_DOT":-0.00000113,"MEAN_MOTION_DDOT":0}]}
